STARLINK-3692           
1 51958U 22025C   26068.17329645 -.00000339  00000+0  66883-6 0  9990
2 51958  53.1631  15.9414 0001402  86.2996 273.8165 15.30182510221092
HAWK-11C                
1 62381U 24247E   26068.51221537  .00009223  00000+0  33290-3 0  9992
2 62381  45.0045 114.8762 0005900 329.7040  30.3502 15.28848020 67743
